$$SOE
2459580.500000000, A.D. 2022-Jan-01 00:00:00.0000, 2.394434420885423E+08, 2.284786344464343E+07, 6.595410368649292E+07,
2459587.500000000, A.D. 2022-Jan-08 00:00:00.0000, 2.393832783629746E+08, 3.895807968445210E+07, 6.745389964213811E+07,
2459594.500000000, A.D. 2022-Jan-15 00:00:00.0000, 2.385950259351484E+08, 5.494996492662768E+07, 6.874852087469192E+07,
2459601.500000000, A.D. 2022-Jan-22 00:00:00.0000, 2.371028353997096E+08, 7.077989905550334E+07, 6.984029887824517E+07,
2459608.500000000, A.D. 2022-Jan-29 00:00:00.0000, 2.349336744106368E+08, 8.640792382943502E+07, 7.073266017003913E+07,
2459615.500000000, A.D. 2022-Feb-05 00:00:00.0000, 2.321167328292378E+08, 1.017978859302298E+08, 7.142998200829920E+07,
2459622.500000000, A.D. 2022-Feb-12 00:00:00.0000, 2.286828570216394E+08, 1.169174806625254E+08, 7.193744577090801E+07,
2459629.500000000, A.D. 2022-Feb-19 00:00:00.0000, 2.246640258088627E+08, 1.317382124109261E+08, 7.226089328402884E+07,
2459636.500000000, A.D. 2022-Feb-26 00:00:00.0000, 2.200928762492796E+08, 1.462352860936842E+08, 7.240669009936750E+07,
2459643.500000000, A.D. 2022-Mar-05 00:00:00.0000, 2.150022849345906E+08, 1.603874440446578E+08, 7.238159854288277E+07,
2459650.500000000, A.D. 2022-Mar-12 00:00:00.0000, 2.094250071449165E+08, 1.741767625315786E+08, 7.219266241793521E+07,
2459657.500000000, A.D. 2022-Mar-19 00:00:00.0000, 2.033933733288439E+08, 1.875884208472015E+08, 7.184710441139056E+07,
2459664.500000000, A.D. 2022-Mar-26 00:00:00.0000, 1.969390402763140E+08, 2.006104541662470E+08, 7.135223654590732E+07,
2459671.500000000, A.D. 2022-Apr-02 00:00:00.0000, 1.900927929794709E+08, 2.132334994608018E+08, 7.071538346162537E+07,
2459678.500000000, A.D. 2022-Apr-09 00:00:00.0000, 1.828843925107649E+08, 2.254505419914658E+08, 6.994381789263335E+07,
2459685.500000000, A.D. 2022-Apr-16 00:00:00.0000, 1.753424649124454E+08, 2.372566688227671E+08, 6.904470747460878E+07,
2459692.500000000, A.D. 2022-Apr-23 00:00:00.0000, 1.674944243834942E+08, 2.486488346987752E+08, 6.802507203367746E+07,
2459699.500000000, A.D. 2022-Apr-30 00:00:00.0000, 1.593664236047764E+08, 2.596256409722054E+08, 6.689175021109208E+07,
2459706.500000000, A.D. 2022-May-07 00:00:00.0000, 1.509833293313754E+08, 2.701871274803934E+08, 6.565137384793198E+07,
2459713.500000000, A.D. 2022-May-14 00:00:00.0000, 1.423687201621868E+08, 2.803345813828047E+08, 6.431034914715795E+07,
2459720.500000000, A.D. 2022-May-21 00:00:00.0000, 1.335449004566641E+08, 2.900703640044615E+08, 6.287484381991106E+07,
2459727.500000000, A.D. 2022-May-28 00:00:00.0000, 1.245329264269354E+08, 2.993977545056701E+08, 6.135077923028961E+07,
2459734.500000000, A.D. 2022-Jun-04 00:00:00.0000, 1.153526416860673E+08, 3.083208094766925E+08, 5.974382663424750E+07,
2459741.500000000, A.D. 2022-Jun-11 00:00:00.0000, 1.060227198641086E+08, 3.168442376182190E+08, 5.805940674553463E+07,
2459748.500000000, A.D. 2022-Jun-18 00:00:00.0000, 9.656071221888986E+07, 3.249732885202261E+08, 5.630269196944118E+07,
2459755.500000000, A.D. 2022-Jun-25 00:00:00.0000, 8.698309853453480E+07, 3.327136544186543E+08, 5.447861073406893E+07,
2459762.500000000, A.D. 2022-Jul-02 00:00:00.0000, 7.730534003341143E+07, 3.400713837451013E+08, 5.259185342124595E+07,
2459769.500000000, A.D. 2022-Jul-09 00:00:00.0000, 6.754193356630574E+07, 3.470528055367870E+08, 5.064687947203414E+07,
2459776.500000000, A.D. 2022-Jul-16 00:00:00.0000, 5.770646614260090E+07, 3.536644647183021E+08, 4.864792542441267E+07,
2459783.500000000, A.D. 2022-Jul-23 00:00:00.0000, 4.781166692461989E+07, 3.599130673119823E+08, 4.659901381255507E+07,
2459790.500000000, A.D. 2022-Jul-30 00:00:00.0000, 3.786945625484545E+07, 3.658054312609250E+08, 4.450396241707085E+07,
2459797.500000000, A.D. 2022-Aug-06 00:00:00.0000, 2.789099493506134E+07, 3.713484426338155E+08, 4.236639340638831E+07,
2459804.500000000, A.D. 2022-Aug-13 00:00:00.0000, 1.788673267411193E+07, 3.765490191611660E+08, 4.018974252300265E+07,
2459811.500000000, A.D. 2022-Aug-20 00:00:00.0000, 7.866453959705354E+06, 3.814140798605129E+08, 3.797726830061044E+07,
2459818.500000000, A.D. 2022-Aug-27 00:00:00.0000, -2.160678686651786E+06, 3.859505193619874E+08, 3.573206115792447E+07,
2459825.500000000, A.D. 2022-Sep-03 00:00:00.0000, -1.218608387489594E+07, 3.901651862376233E+08, 3.345705227185535E+07,
2459832.500000000, A.D. 2022-Sep-10 00:00:00.0000, -2.220172284494607E+07, 3.940648648389259E+08, 3.115502217558092E+07,
2459839.500000000, A.D. 2022-Sep-17 00:00:00.0000, -3.220006323578971E+07, 3.976562601785552E+08, 2.882860904358363E+07,
2459846.500000000, A.D. 2022-Sep-24 00:00:00.0000, -4.217404500594995E+07, 4.009459853929781E+08, 2.648031662943006E+07,
2459853.500000000, A.D. 2022-Oct-01 00:00:00.0000, -5.211704818990567E+07, 4.039405513977135E+08, 2.411252181691635E+07,
2459860.500000000, A.D. 2022-Oct-08 00:00:00.0000, -6.202286199689790E+07, 4.066463589348067E+08, 2.172748178195000E+07,
2459867.500000000, A.D. 2022-Oct-15 00:00:00.0000, -7.188565608976135E+07, 4.090696939303760E+08, 1.932734094672671E+07,
2459874.500000000, A.D. 2022-Oct-22 00:00:00.0000, -8.169995612399869E+07, 4.112167242303258E+08, 1.691413779117694E+07,
2459881.500000000, A.D. 2022-Oct-29 00:00:00.0000, -9.146062094806264E+07, 4.130934948991113E+08, 1.448981108699498E+07,
2459888.500000000, A.D. 2022-Nov-05 00:00:00.0000, -1.011628192679567E+08, 4.147059246349509E+08, 1.205620559522346E+07,
2459895.500000000, A.D. 2022-Nov-12 00:00:00.0000, -1.108020076406791E+08, 4.160598044082001E+08, 9.615077522127390E+06,
2459902.500000000, A.D. 2022-Nov-19 00:00:00.0000, -1.203739104169970E+08, 4.171607972253542E+08, 7.168099733562589E+06,
2459909.500000000, A.D. 2022-Nov-26 00:00:00.0000, -1.298745012772363E+08, 4.180144384961877E+08, 4.716866684602290E+06,
2459916.500000000, A.D. 2022-Dec-03 00:00:00.0000, -1.392999861041703E+08, 4.186261368846974E+08, 2.262899062106282E+06,
2459923.500000000, A.D. 2022-Dec-10 00:00:00.0000, -1.486467870616777E+08, 4.190011755694886E+08, -1.923518483408988E+05,
2459930.500000000, A.D. 2022-Dec-17 00:00:00.0000, -1.579115277729012E+08, 4.191447138081731E+08, -2.647500061359614E+06,
2459937.500000000, A.D. 2022-Dec-24 00:00:00.0000, -1.670910194113367E+08, 4.190617886703248E+08, -5.101221058073282E+06,
2459944.500000000, A.D. 2022-Dec-31 00:00:00.0000, -1.761822472745513E+08, 4.187573169861929E+08, -7.552248230147064E+06,
2459951.500000000, A.D. 2023-Jan-07 00:00:00.0000, -1.851823576500270E+08, 4.182360984217244E+08, -9.999369520938754E+06,
2459958.500000000, A.D. 2023-Jan-14 00:00:00.0000, -1.940886468766418E+08, 4.175028201330881E+08, -1.244142403011304E+07,
2459965.500000000, A.D. 2023-Jan-21 00:00:00.0000, -2.028985531853486E+08, 4.165620597891738E+08, -1.487729876956913E+07,
2459972.500000000, A.D. 2023-Jan-28 00:00:00.0000, -2.116096475955642E+08, 4.154182867300788E+08, -1.730592591079172E+07,
2459979.500000000, A.D. 2023-Feb-04 00:00:00.0000, -2.202196240275905E+08, 4.140758642615194E+08, -1.972628024573791E+07,
2459986.500000000, A.D. 2023-Feb-11 00:00:00.0000, -2.287262903798164E+08, 4.125390528704584E+08, -2.213737670204900E+07,
2459993.500000000, A.D. 2023-Feb-18 00:00:00.0000, -2.371275605895280E+08, 4.108120135197806E+08, -2.453826796405303E+07,
2460000.500000000, A.D. 2023-Feb-25 00:00:00.0000, -2.454214473735209E+08, 4.088988108440608E+08, -2.692804222738197E+07,
2460007.500000000, A.D. 2023-Mar-04 00:00:00.0000, -2.536060555082320E+08, 4.068034162520672E+08, -2.930582108613840E+07,
2460014.500000000, A.D. 2023-Mar-11 00:00:00.0000, -2.616795755852441E+08, 4.045297109256787E+08, -3.167075754683113E+07,
2460021.500000000, A.D. 2023-Mar-18 00:00:00.0000, -2.696402781620051E+08, 4.020814886567888E+08, -3.402203416956569E+07,
2460028.500000000, A.D. 2023-Mar-25 00:00:00.0000, -2.774865080736404E+08, 3.994624584676005E+08, -3.635886135156535E+07,
2460035.500000000, A.D. 2023-Apr-01 00:00:00.0000, -2.852166784527007E+08, 3.966762474016203E+08, -3.868047575280464E+07,
2460042.500000000, A.D. 2023-Apr-08 00:00:00.0000, -2.928292650458478E+08, 3.937264047056257E+08, -4.098613870067340E+07,
2460049.500000000, A.D. 2023-Apr-15 00:00:00.0000, -3.003228031395850E+08, 3.906164062932773E+08, -4.327513444366744E+07,
2460056.500000000, A.D. 2023-Apr-22 00:00:00.0000, -3.076958852609819E+08, 3.873496564343421E+08, -4.554676866323005E+07,
2460063.500000000, A.D. 2023-Apr-29 00:00:00.0000, -3.149471568969474E+08, 3.839294889167506E+08, -4.780036730423799E+07,
2460070.500000000, A.D. 2023-May-06 00:00:00.0000, -3.220753119756457E+08, 3.803591694603713E+08, -5.003527541211668E+07,
2460077.500000000, A.D. 2023-May-13 00:00:00.0000, -3.290790890709927E+08, 3.766418984895173E+08, -5.225085595586658E+07,
2460084.500000000, A.D. 2023-May-20 00:00:00.0000, -3.359572680804554E+08, 3.727808137740550E+08, -5.444648869475859E+07,
2460091.500000000, A.D. 2023-May-27 00:00:00.0000, -3.427086671677655E+08, 3.687789929109355E+08, -5.662156910530990E+07,
2460098.500000000, A.D. 2023-Jun-03 00:00:00.0000, -3.493321398987274E+08, 3.646394556734973E+08, -5.877550736837423E+07,
2460105.500000000, A.D. 2023-Jun-10 00:00:00.0000, -3.558265725328697E+08, 3.603651662160125E+08, -6.090772741645440E+07,
2460112.500000000, A.D. 2023-Jun-17 00:00:00.0000, -3.621908813693594E+08, 3.559590350744734E+08, -6.301766605122282E+07,
2460119.500000000, A.D. 2023-Jun-24 00:00:00.0000, -3.684240098156369E+08, 3.514239210202991E+08, -6.510477215308417E+07,
2460126.500000000, A.D. 2023-Jul-01 00:00:00.0000, -3.745249249152056E+08, 3.467626335961828E+08, -6.716850593551932E+07,
2460133.500000000, A.D. 2023-Jul-08 00:00:00.0000, -3.804926149995474E+08, 3.419779371578393E+08, -6.920833802105132E+07,
2460140.500000000, A.D. 2023-Jul-15 00:00:00.0000, -3.863260897323045E+08, 3.370725535946213E+08, -7.122374845083937E+07,
2460147.500000000, A.D. 2023-Jul-22 00:00:00.0000, -3.920243790147146E+08, 3.320491626964278E+08, -7.321422603279100E+07,
$$EOE